{
  "type": "FeatureCollection",
  "features": [
    {
      "type": "Feature",
      "properties": {
        "norad_id": 27954,
        "name": "GALAXY 13 (HORIZONS-1)",
        "group": "intelsat",
        "lat": 0.05102070448700019,
        "lon": -98.28884137807933,
        "alt_km": 35776.611260667145,
        "timestamp": "2025-12-17T21:39:45.376063+00:00",
        "meta_object_name": "GALAXY 13 (HORIZONS-1)",
        "meta_object_id": "2003-044A",
        "meta_epoch": "2025-12-17T14:19:31.802304",
        "meta_mean_motion": 1.00273714,
        "meta_eccentricity": 0.0002098,
        "meta_inclination": 0.9487,
        "meta_ra_of_asc_node": 86.4092,
        "meta_arg_of_pericenter": 176.88,
        "meta_mean_anomaly": 248.0721,
        "meta_ephemeris_type": 0,
        "meta_classification_type": "U",
        "meta_norad_cat_id": 27954,
        "meta_element_set_no": 999,
        "meta_rev_at_epoch": 4475,
        "meta_bstar": 0,
        "meta_mean_motion_dot": 1.57e-06,
        "meta_mean_motion_ddot": 0,
        "tle_line1": "1 27954U 03044A   25351.59689586  .00000157  00000+0  00000+0 0  9991",
        "tle_line2": "2 27954   0.9487  86.4092 0002098 176.8800 248.0721  1.00273714 44754"
      },
      "geometry": {
        "type": "Point",
        "coordinates": [
          -98.28884137807933,
          0.05102070448700019
        ]
      }
    },
    {
      "type": "Feature",
      "properties": {
        "norad_id": 28358,
        "name": "INTELSAT 10-02",
        "group": "intelsat",
        "lat": 0.0108715115344554,
        "lon": 50.74798741260822,
        "alt_km": 35787.53302411588,
        "timestamp": "2025-12-17T21:39:45.376075+00:00",
        "meta_object_name": "INTELSAT 10-02",
        "meta_object_id": "2004-022A",
        "meta_epoch": "2025-12-17T13:19:07.586688",
        "meta_mean_motion": 1.00271129,
        "meta_eccentricity": 9.362e-05,
        "meta_inclination": 0.0224,
        "meta_ra_of_asc_node": 69.842,
        "meta_arg_of_pericenter": 232.2635,
        "meta_mean_anomaly": 343.1449,
        "meta_ephemeris_type": 0,
        "meta_classification_type": "U",
        "meta_norad_cat_id": 28358,
        "meta_element_set_no": 999,
        "meta_rev_at_epoch": 7873,
        "meta_bstar": 0,
        "meta_mean_motion_dot": 1.4e-07,
        "meta_mean_motion_ddot": 0,
        "tle_line1": "1 28358U 04022A   25351.55494892  .00000014  00000+0  00000+0 0  9999",
        "tle_line2": "2 28358   0.0224  69.8420 0000936 232.2635 343.1449  1.00271129 78732"
      },
      "geometry": {
        "type": "Point",
        "coordinates": [
          50.74798741260822,
          0.0108715115344554
        ]
      }
    },
    {
      "type": "Feature",
      "properties": {
        "norad_id": 28626,
        "name": "XM-3 (RHYTHM)",
        "group": "intelsat",
        "lat": 0.1706574627687958,
        "lon": 141.49234693648978,
        "alt_km": 36166.63095412505,
        "timestamp": "2025-12-17T21:39:45.376086+00:00",
        "meta_object_name": "XM-3 (RHYTHM)",
        "meta_object_id": "2005-008A",
        "meta_epoch": "2025-12-17T13:45:35.052768",
        "meta_mean_motion": 0.98950576,
        "meta_eccentricity": 0.00018102,
        "meta_inclination": 0.1869,
        "meta_ra_of_asc_node": 81.8659,
        "meta_arg_of_pericenter": 277.4858,
        "meta_mean_anomaly": 24.8387,
        "meta_ephemeris_type": 0,
        "meta_classification_type": "U",
        "meta_norad_cat_id": 28626,
        "meta_element_set_no": 999,
        "meta_rev_at_epoch": 4079,
        "meta_bstar": 0,
        "meta_mean_motion_dot": 9e-08,
        "meta_mean_motion_ddot": 0,
        "tle_line1": "1 28626U 05008A   25351.57332237  .00000009  00000+0  00000+0 0  9992",
        "tle_line2": "2 28626   0.1869  81.8659 0001810 277.4858  24.8387  0.98950576 40799"
      },
      "geometry": {
        "type": "Point",
        "coordinates": [
          141.49234693648978,
          0.1706574627687958
        ]
      }
    },
    {
      "type": "Feature",
      "properties": {
        "norad_id": 28659,
        "name": "DIRECTV 8",
        "group": "intelsat",
        "lat": -0.029230143699586864,
        "lon": -67.3228216429954,
        "alt_km": 35774.19122571519,
        "timestamp": "2025-12-17T21:39:45.376101+00:00",
        "meta_object_name": "DIRECTV 8",
        "meta_object_id": "2005-019A",
        "meta_epoch": "2025-12-17T12:07:59.513088",
        "meta_mean_motion": 1.00272939,
        "meta_eccentricity": 0.00028594,
        "meta_inclination": 0.018,
        "meta_ra_of_asc_node": 329.8872,
        "meta_arg_of_pericenter": 305.4838,
        "meta_mean_anomaly": 233.9742,
        "meta_ephemeris_type": 0,
        "meta_classification_type": "U",
        "meta_norad_cat_id": 28659,
        "meta_element_set_no": 999,
        "meta_rev_at_epoch": 7525,
        "meta_bstar": 0,
        "meta_mean_motion_dot": 2.6e-07,
        "meta_mean_motion_ddot": 0,
        "tle_line1": "1 28659U 05019A   25351.50554992  .00000026  00000+0  00000+0 0  9996",
        "tle_line2": "2 28659   0.0180 329.8872 0002859 305.4838 233.9742  1.00272939 75257"
      },
      "geometry": {
        "type": "Point",
        "coordinates": [
          -67.3228216429954,
          -0.029230143699586864
        ]
      }
    },
    {
      "type": "Feature",
      "properties": {
        "norad_id": 28702,
        "name": "GALAXY 28 (G-28)",
        "group": "intelsat",
        "lat": -2.508069688106959,
        "lon": -36.99886097723217,
        "alt_km": 35778.9124192385,
        "timestamp": "2025-12-17T21:39:45.376119+00:00",
        "meta_object_name": "GALAXY 28 (G-28)",
        "meta_object_id": "2005-022A",
        "meta_epoch": "2025-12-17T12:09:22.001760",
        "meta_mean_motion": 1.00270797,
        "meta_eccentricity": 0.00029037,
        "meta_inclination": 2.8315,
        "meta_ra_of_asc_node": 81.2272,
        "meta_arg_of_pericenter": 191.246,
        "meta_mean_anomaly": 267.5514,
        "meta_ephemeris_type": 0,
        "meta_classification_type": "U",
        "meta_norad_cat_id": 28702,
        "meta_element_set_no": 999,
        "meta_rev_at_epoch": 5015,
        "meta_bstar": 0,
        "meta_mean_motion_dot": -1.65e-06,
        "meta_mean_motion_ddot": 0,
        "tle_line1": "1 28702U 05022A   25351.50650465 -.00000165  00000+0  00000+0 0  9996",
        "tle_line2": "2 28702   2.8315  81.2272 0002903 191.2460 267.5514  1.00270797 50153"
      },
      "geometry": {
        "type": "Point",
        "coordinates": [
          -36.99886097723217,
          -2.508069688106959
        ]
      }
    },
    {
      "type": "Feature",
      "properties": {
        "norad_id": 29236,
        "name": "GALAXY 16 (G-16)",
        "group": "intelsat",
        "lat": 0.003161922627489071,
        "lon": -47.28234652427407,
        "alt_km": 35780.07804037025,
        "timestamp": "2025-12-17T21:39:45.376131+00:00",
        "meta_object_name": "GALAXY 16 (G-16)",
        "meta_object_id": "2006-023A",
        "meta_epoch": "2025-12-17T12:57:02.087136",
        "meta_mean_motion": 1.00270128,
        "meta_eccentricity": 0.00024088,
        "meta_inclination": 0.0343,
        "meta_ra_of_asc_node": 215.9894,
        "meta_arg_of_pericenter": 46.1173,
        "meta_mean_anomaly": 279.5655,
        "meta_ephemeris_type": 0,
        "meta_classification_type": "U",
        "meta_norad_cat_id": 29236,
        "meta_element_set_no": 999,
        "meta_rev_at_epoch": 7115,
        "meta_bstar": 0,
        "meta_mean_motion_dot": -1.02e-06,
        "meta_mean_motion_ddot": 0,
        "tle_line1": "1 29236U 06023A   25351.53960749 -.00000102  00000+0  00000+0 0  9994",
        "tle_line2": "2 29236   0.0343 215.9894 0002408  46.1173 279.5655  1.00270128 71152"
      },
      "geometry": {
        "type": "Point",
        "coordinates": [
          -47.28234652427407,
          0.003161922627489071
        ]
      }
    },
    {
      "type": "Feature",
      "properties": {
        "norad_id": 29494,
        "name": "DIRECTV 9S",
        "group": "intelsat",
        "lat": -1.4523997063466962,
        "lon": -49.50323850310708,
        "alt_km": 35776.981900174185,
        "timestamp": "2025-12-17T21:39:45.376142+00:00",
        "meta_object_name": "DIRECTV 9S",
        "meta_object_id": "2006-043A",
        "meta_epoch": "2025-12-17T12:02:14.487648",
        "meta_mean_motion": 1.00271907,
        "meta_eccentricity": 0.00028207,
        "meta_inclination": 1.9519,
        "meta_ra_of_asc_node": 83.1628,
        "meta_arg_of_pericenter": 188.2674,
        "meta_mean_anomaly": 254.2966,
        "meta_ephemeris_type": 0,
        "meta_classification_type": "U",
        "meta_norad_cat_id": 29494,
        "meta_element_set_no": 999,
        "meta_rev_at_epoch": 4956,
        "meta_bstar": 0,
        "meta_mean_motion_dot": -9e-07,
        "meta_mean_motion_ddot": 0,
        "tle_line1": "1 29494U 06043A   25351.50155657 -.00000090  00000+0  00000+0 0  9999",
        "tle_line2": "2 29494   1.9519  83.1628 0002820 188.2674 254.2966  1.00271907 49566"
      },
      "geometry": {
        "type": "Point",
        "coordinates": [
          -49.50323850310708,
          -1.4523997063466962
        ]
      }
    }
  ]
}